{"type": "FeatureCollection", "features": [ {"type": "Feature", "properties": {"norad_id": 31342, "name": "FENGYUN 1C DEB", "group": "fengyun-1c-debris", "lat": -6.242746714748141, "lon": -66.85071002660736, "alt_km": 790.4743538973644, "timestamp": "2025-12-02T07:10:09.397224+00:00", "meta": {"OBJECT_NAME": "FENGYUN 1C DEB", "OBJECT_ID": "1999-025BQW", "EPOCH": "2025-11-29T02:18:53.046720", "MEAN_MOTION": 14.36748173, "ECCENTRICITY": 0.01111347, "INCLINATION": 98.9329, "RA_OF_ASC_NODE": 288.8418, "ARG_OF_PERICENTER": 259.8555, "MEAN_ANOMALY": 99.0079, "EPHEMERIS_TYPE": 0, "CLASSIFICATION_TYPE": "U", "NORAD_CAT_ID": 31342, "ELEMENT_SET_NO": 999, "REV_AT_EPOCH": 97695, "BSTAR": 0.00017184307, "MEAN_MOTION_DOT": 4.93e-06, "MEAN_MOTION_DDOT": 0}, "tle": {"line1": "1 31342U 99025BQW 25333.09644730  .00000493  00000+0  17184-3 0  9996", "line2": "2 31342  98.9329 288.8418 0111134 259.8555  99.0079 14.36748173976958"}}, "geometry": {"type": "Point", "coordinates": [-66.85071002660736, -6.242746714748141]}}, {"type": "Feature", "properties": {"norad_id": 31346, "name": "FENGYUN 1C DEB", "group": "fengyun-1c-debris", "lat": -75.48242994968254, "lon": -21.315374148721542, "alt_km": 590.4526535163986, "timestamp": "2025-12-02T07:10:09.397237+00:00", "meta": {"OBJECT_NAME": "FENGYUN 1C DEB", "OBJECT_ID": "1999-025BRA", "EPOCH": "2025-12-01T15:36:52.917408", "MEAN_MOTION": 15.10196558, "ECCENTRICITY": 0.01131369, "INCLINATION": 98.8639, "RA_OF_ASC_NODE": 300.8739, "ARG_OF_PERICENTER": 51.7552, "MEAN_ANOMALY": 309.3789, "EPHEMERIS_TYPE": 0, "CLASSIFICATION_TYPE": "U", "NORAD_CAT_ID": 31346, "ELEMENT_SET_NO": 999, "REV_AT_EPOCH": 99328, "BSTAR": 0.0011701036, "MEAN_MOTION_DOT": 0.00022227, "MEAN_MOTION_DDOT": 0}, "tle": {"line1": "1 31346U 99025BRA 25335.65061247  .00022227  00000+0  11701-2 0  9997", "line2": "2 31346  98.8639 300.8739 0113136  51.7552 309.3789 15.10196558993283"}}, "geometry": {"type": "Point", "coordinates": [-21.315374148721542, -75.48242994968254]}}, {"type": "Feature", "properties": {"norad_id": 31348, "name": "FENGYUN 1C DEB", "group": "fengyun-1c-debris", "lat": -60.07470179098976, "lon": -57.08341052401742, "alt_km": 808.5328943964132, "timestamp": "2025-12-02T07:10:09.397247+00:00", "meta": {"OBJECT_NAME": "FENGYUN 1C DEB", "OBJECT_ID": "1999-025BRC", "EPOCH": "2025-11-28T08:41:40.930656", "MEAN_MOTION": 14.33890791, "ECCENTRICITY": 0.00348303, "INCLINATION": 99.1177, "RA_OF_ASC_NODE": 282.5694, "ARG_OF_PERICENTER": 106.1878, "MEAN_ANOMALY": 43.9945, "EPHEMERIS_TYPE": 0, "CLASSIFICATION_TYPE": "U", "NORAD_CAT_ID": 31348, "ELEMENT_SET_NO": 999, "REV_AT_EPOCH": 96043, "BSTAR": 0.0012126953, "MEAN_MOTION_DOT": 3.354e-05, "MEAN_MOTION_DDOT": 0}, "tle": {"line1": "1 31348U 99025BRC 25332.36227929  .00003354  00000+0  12127-2 0  9998", "line2": "2 31348  99.1177 282.5694 0034830 106.1878  43.9945 14.33890791960431"}}, "geometry": {"type": "Point", "coordinates": [-57.08341052401742, -60.07470179098976]}}, {"type": "Feature", "properties": {"norad_id": 31350, "name": "FENGYUN 1C DEB", "group": "fengyun-1c-debris", "lat": 10.365913819773947, "lon": -30.423668413295363, "alt_km": 730.8534979684537, "timestamp": "2025-12-02T07:10:09.397258+00:00", "meta": {"OBJECT_NAME": "FENGYUN 1C DEB", "OBJECT_ID": "1999-025BRE", "EPOCH": "2025-11-30T17:33:48.876480", "MEAN_MOTION": 14.34783112, "ECCENTRICITY": 0.00667285, "INCLINATION": 98.9598, "RA_OF_ASC_NODE": 146.2979, "ARG_OF_PERICENTER": 160.2382, "MEAN_ANOMALY": 200.141, "EPHEMERIS_TYPE": 0, "CLASSIFICATION_TYPE": "U", "NORAD_CAT_ID": 31350, "ELEMENT_SET_NO": 999, "REV_AT_EPOCH": 70081, "BSTAR": 0.00062280408, "MEAN_MOTION_DOT": 1.764e-05, "MEAN_MOTION_DDOT": 0}, "tle": {"line1": "1 31350U 99025BRE 25334.73181570  .00001764  00000+0  62280-3 0  9994", "line2": "2 31350  98.9598 146.2979 0066728 160.2382 200.1410 14.34783112700819"}}, "geometry": {"type": "Point", "coordinates": [-30.423668413295363, 10.365913819773947]}}, {"type": "Feature", "properties": {"norad_id": 31351, "name": "FENGYUN 1C DEB", "group": "fengyun-1c-debris", "lat": 2.9524603945786456, "lon": -37.092661064040065, "alt_km": 856.4573484261855, "timestamp": "2025-12-02T07:10:09.397269+00:00", "meta": {"OBJECT_NAME": "FENGYUN 1C DEB", "OBJECT_ID": "1999-025BRF", "EPOCH": "2025-11-21T10:00:41.754816", "MEAN_MOTION": 14.06899325, "ECCENTRICITY": 0.00936968, "INCLINATION": 98.7943, "RA_OF_ASC_NODE": 312.7829, "ARG_OF_PERICENTER": 110.5825, "MEAN_ANOMALY": 250.5426, "EPHEMERIS_TYPE": 0, "CLASSIFICATION_TYPE": "U", "NORAD_CAT_ID": 31351, "ELEMENT_SET_NO": 999, "REV_AT_EPOCH": 61075, "BSTAR": 0.00032542954, "MEAN_MOTION_DOT": 5.22e-06, "MEAN_MOTION_DDOT": 0}, "tle": {"line1": "1 31351U 99025BRF 25325.41714994  .00000522  00000+0  32543-3 0  9992", "line2": "2 31351  98.7943 312.7829 0093696 110.5825 250.5426 14.06899325610752"}}, "geometry": {"type": "Point", "coordinates": [-37.092661064040065, 2.9524603945786456]}}, {"type": "Feature", "properties": {"norad_id": 31353, "name": "FENGYUN 1C DEB", "group": "fengyun-1c-debris", "lat": 74.46500179492094, "lon": -133.49279593852515, "alt_km": 631.9417489867928, "timestamp": "2025-12-02T07:10:09.397278+00:00", "meta": {"OBJECT_NAME": "FENGYUN 1C DEB", "OBJECT_ID": "1999-025BRH", "EPOCH": "2025-11-28T00:21:57.879936", "MEAN_MOTION": 14.29784822, "ECCENTRICITY": 0.02273016, "INCLINATION": 98.9934, "RA_OF_ASC_NODE": 256.8108, "ARG_OF_PERICENTER": 110.0293, "MEAN_ANOMALY": 252.5515, "EPHEMERIS_TYPE": 0, "CLASSIFICATION_TYPE": "U", "NORAD_CAT_ID": 31353, "ELEMENT_SET_NO": 999, "REV_AT_EPOCH": 96374, "BSTAR": 0.00040911928, "MEAN_MOTION_DOT": 1.339e-05, "MEAN_MOTION_DDOT": 0}, "tle": {"line1": "1 31353U 99025BRH 25332.01525324  .00001339  00000+0  40912-3 0  9991", "line2": "2 31353  98.9934 256.8108 0227301 110.0293 252.5515 14.29784822963741"}}, "geometry": {"type": "Point", "coordinates": [-133.49279593852515, 74.46500179492094]}}, {"type": "Feature", "properties": {"norad_id": 31357, "name": "FENGYUN 1C DEB", "group": "fengyun-1c-debris", "lat": 55.430333551780926, "lon": -5.100026414460437, "alt_km": 826.7263465560509, "timestamp": "2025-12-02T07:10:09.397289+00:00", "meta": {"OBJECT_NAME": "FENGYUN 1C DEB", "OBJECT_ID": "1999-025BRM", "EPOCH": "2025-11-30T00:52:28.172352", "MEAN_MOTION": 14.18522875, "ECCENTRICITY": 0.00493295, "INCLINATION": 98.613, "RA_OF_ASC_NODE": 5.4099, "ARG_OF_PERICENTER": 329.9646, "MEAN_ANOMALY": 59.6806, "EPHEMERIS_TYPE": 0, "CLASSIFICATION_TYPE": "U", "NORAD_CAT_ID": 31357, "ELEMENT_SET_NO": 999, "REV_AT_EPOCH": 96524, "BSTAR": 4.375307e-05, "MEAN_MOTION_DOT": 4.9e-07, "MEAN_MOTION_DDOT": 0}, "tle": {"line1": "1 31357U 99025BRM 25334.03643718  .00000049  00000+0  43753-4 0  9991", "line2": "2 31357  98.6130   5.4099 0049329 329.9646  59.6806 14.18522875965244"}}, "geometry": {"type": "Point", "coordinates": [-5.100026414460437, 55.430333551780926]}}, {"type": "Feature", "properties": {"norad_id": 31358, "name": "FENGYUN 1C DEB", "group": "fengyun-1c-debris", "lat": -65.88200433742205, "lon": 67.07187773150898, "alt_km": 537.5138619793079, "timestamp": "2025-12-02T07:10:09.397299+00:00", "meta": {"OBJECT_NAME": "FENGYUN 1C DEB", "OBJECT_ID": "1999-025BRN", "EPOCH": "2025-12-01T18:58:41.078208", "MEAN_MOTION": 15.13755848, "ECCENTRICITY": 0.0041037, "INCLINATION": 98.9074, "RA_OF_ASC_NODE": 266.9853, "ARG_OF_PERICENTER": 146.7558, "MEAN_ANOMALY": 213.626, "EPHEMERIS_TYPE": 0, "CLASSIFICATION_TYPE": "U", "NORAD_CAT_ID": 31358, "ELEMENT_SET_NO": 999, "REV_AT_EPOCH": 97404, "BSTAR": 0.0069488, "MEAN_MOTION_DOT": 0.00129969, "MEAN_MOTION_DDOT": 0}, "tle": {"line1": "1 31358U 99025BRN 25335.79075322  .00129969  00000+0  69488-2 0  9990", "line2": "2 31358  98.9074 266.9853 0041037 146.7558 213.6260 15.13755848974040"}}, "geometry": {"type": "Point", "coordinates": [67.07187773150898, -65.88200433742205]}}, {"type": "Feature", "properties": {"norad_id": 31361, "name": "FENGYUN 1C DEB", "group": "fengyun-1c-debris", "lat": -48.93330152275586, "lon": 122.05683276935433, "alt_km": 861.032535708754, "timestamp": "2025-12-02T07:10:09.397309+00:00", "meta": {"OBJECT_NAME": "FENGYUN 1C DEB", "OBJECT_ID": "1999-025BRR", "EPOCH": "2025-11-27T15:59:48.634368", "MEAN_MOTION": 14.17732705, "ECCENTRICITY": 0.00460685, "INCLINATION": 98.5493, "RA_OF_ASC_NODE": 307.5397, "ARG_OF_PERICENTER": 113.1293, "MEAN_ANOMALY": 247.4747, "EPHEMERIS_TYPE": 0, "CLASSIFICATION_TYPE": "U", "NORAD_CAT_ID": 31361, "ELEMENT_SET_NO": 999, "REV_AT_EPOCH": 96350, "BSTAR": 0.00014405604, "MEAN_MOTION_DOT": 2.55e-06, "MEAN_MOTION_DDOT": 0}, "tle": {"line1": "1 31361U 99025BRR 25331.66653512  .00000255  00000+0  14406-3 0  9996", "line2": "2 31361  98.5493 307.5397 0046068 113.1293 247.4747 14.17732705963507"}}, "geometry": {"type": "Point", "coordinates": [122.05683276935433, -48.93330152275586]}}, {"type": "Feature", "properties": {"norad_id": 31362, "name": "FENGYUN 1C DEB", "group": "fengyun-1c-debris", "lat": -40.14548310026625, "lon": 143.54785138469595, "alt_km": 842.3023982216318, "timestamp": "2025-12-02T07:10:09.397321+00:00", "meta": {"OBJECT_NAME": "FENGYUN 1C DEB", "OBJECT_ID": "1999-025BRS", "EPOCH": "2025-11-30T18:33:16.070688", "MEAN_MOTION": 14.17365366, "ECCENTRICITY": 0.00189809, "INCLINATION": 98.6521, "RA_OF_ASC_NODE": 329.4414, "ARG_OF_PERICENTER": 128.3451, "MEAN_ANOMALY": 231.9434, "EPHEMERIS_TYPE": 0, "CLASSIFICATION_TYPE": "U", "NORAD_CAT_ID": 31362, "ELEMENT_SET_NO": 999, "REV_AT_EPOCH": 96406, "BSTAR": 0.00017153052, "MEAN_MOTION_DOT": 3.05e-06, "MEAN_MOTION_DDOT": 0}, "tle": {"line1": "1 31362U 99025BRS 25334.77310267  .00000305  00000+0  17153-3 0  9997", "line2": "2 31362  98.6521 329.4414 0018980 128.3451 231.9434 14.17365366964068"}}, "geometry": {"type": "Point", "coordinates": [143.54785138469595, -40.14548310026625]}}]}